KUIPER-00035            
1 63748U 25088AA  25227.58336806 -.00012231  00000+0 -14952-2 0  9991
2 63748  51.8979 305.5072 0006199 114.9942 111.8680 14.82156835  5021
KUIPER-00037            
1 63749U 25088AB  25227.58336806 -.00008753  00000+0 -10388-2 0  9995
2 63749  51.8981 304.5099 0007351  61.6792 148.7328 14.83034287  5884
KUIPER-00038            
1 63750U 25088AC  25227.58336806 -.00520178  00000+0 -25347-1 0  9997
2 63750  51.8801 293.9672 0006300 113.7050 294.1643 15.20252666  2286
KUIPER-00039            
1 64500U 25134A   25226.99532890  .00026686  00000+0  76895-3 0  9997
2 64500  51.8676  77.8299 0008085 300.2892  59.7294 15.35518839  9314
KUIPER-00040            
1 64501U 25134B   25227.58336806 -.00021812  00000+0 -13514-2 0  9999
2 64501  51.8829  78.1996 0015022 309.5450 255.3848 15.08838592  5815
KUIPER-00041            
1 64502U 25134C   25227.58336806 -.01448654  00000+0 -11177+0 0  9998
2 64502  51.8836  78.7667 0011954 311.0450 291.7445 15.04436522  5497
KUIPER-00042            
1 64503U 25134D   25227.58336806  .00024332  00000+0  13171-2 0  9998
2 64503  51.8780  76.9965 0011069 312.6229 154.2824 15.14455568  5930
KUIPER-00043            
1 64504U 25134E   25227.58336806  .00023927  00000+0  82657-3 0  9994
2 64504  51.8716  75.2022 0007982 302.2949 341.8331 15.29784283  4750
